[
    {
        "Altitude(m)": 565420.5212867752,
        "Argument of Periapsis(deg)": 0.0,
        "Eccentricity": 0.0,
        "Inclination(deg)": 53.0,
        "Latitude(deg)": -37.33056550738216,
        "Longitude(deg)": -134.8275152150834,
        "Mean Anomaly(deg)": 310.9091000000001,
        "RAAN(deg)": 0.0,
        "Satellite Name": "Starlink Shell 1 19",
        "Satellite Number": 19,
        "Semi-Major Axis(m)": 6931778.249405717,
        "Time(s)": 0
    },
    {
        "Altitude(m)": 565251.5211309412,
        "Argument of Periapsis(deg)": 0.00034857847951123687,
        "Eccentricity": 0.0,
        "Inclination(deg)": 53.0,
        "Latitude(deg)": -36.91803310383175,
        "Longitude(deg)": -134.27925435363215,
        "Mean Anomaly(deg)": 311.53593120355674,
        "RAAN(deg)": -0.0005187700774727988,
        "Satellite Name": "Starlink Shell 1 19",
        "Satellite Number": 19,
        "Semi-Major Axis(m)": 6931778.249405717,
        "Time(s)": 10
    },
    {
        "Altitude(m)": 565081.6328835222,
        "Argument of Periapsis(deg)": 0.0006971569590224737,
        "Eccentricity": 0.0,
        "Inclination(deg)": 53.0,
        "Latitude(deg)": -36.502566852896024,
        "Longitude(deg)": -133.73731181500003,
        "Mean Anomaly(deg)": 312.1627624071135,
        "RAAN(deg)": -0.0010375401549455976,
        "Satellite Name": "Starlink Shell 1 19",
        "Satellite Number": 19,
        "Semi-Major Axis(m)": 6931778.249405717,
        "Time(s)": 20
    },
    {
        "Altitude(m)": 564910.9220049419,
        "Argument of Periapsis(deg)": 0.0010457354385337105,
        "Eccentricity": 0.0,
        "Inclination(deg)": 53.0,
        "Latitude(deg)": -36.08423979531053,
        "Longitude(deg)": -133.2015689603895,
        "Mean Anomaly(deg)": 312.7895936106702,
        "RAAN(deg)": -0.0015563102324183964,
        "Satellite Name": "Starlink Shell 1 19",
        "Satellite Number": 19,
        "Semi-Major Axis(m)": 6931778.249405717,
        "Time(s)": 30
    },
    {
        "Altitude(m)": 564739.4541773449,
        "Argument of Periapsis(deg)": 0.0013943139180449475,
        "Eccentricity": 0.0,
        "Inclination(deg)": 53.0,
        "Latitude(deg)": -35.66312335123199,
        "Longitude(deg)": -132.6719070373635,
        "Mean Anomaly(deg)": 313.41642481422696,
        "RAAN(deg)": -0.002075080309891195,
        "Satellite Name": "Starlink Shell 1 19",
        "Satellite Number": 19,
        "Semi-Major Axis(m)": 6931778.249405717,
        "Time(s)": 40
    },
    {
        "Altitude(m)": 564567.2952753194,
        "Argument of Periapsis(deg)": 0.0017428923975561844,
        "Eccentricity": 0.0,
        "Inclination(deg)": 53.0,
        "Latitude(deg)": -35.23928734933678,
        "Longitude(deg)": -132.14820830320954,
        "Mean Anomaly(deg)": 314.0432560177836,
        "RAAN(deg)": -0.002593850387363994,
        "Satellite Name": "Starlink Shell 1 19",
        "Satellite Number": 19,
        "Semi-Major Axis(m)": 6931778.249405717,
        "Time(s)": 50
    },
    {
        "Altitude(m)": 564394.5113365217,
        "Argument of Periapsis(deg)": 0.002091470877067421,
        "Eccentricity": 0.0,
        "Inclination(deg)": 53.0,
        "Latitude(deg)": -34.81280005676813,
        "Longitude(deg)": -131.6303556252212,
        "Mean Anomaly(deg)": 314.67008722134034,
        "RAAN(deg)": -0.0031126204648367927,
        "Satellite Name": "Starlink Shell 1 19",
        "Satellite Number": 19,
        "Semi-Major Axis(m)": 6931778.249405717,
        "Time(s)": 60
    },
    {
        "Altitude(m)": 564221.1685322026,
        "Argument of Periapsis(deg)": 0.0024400493565786582,
        "Eccentricity": 0.0,
        "Inclination(deg)": 53.0,
        "Latitude(deg)": -34.383728209787094,
        "Longitude(deg)": -131.118232071331,
        "Mean Anomaly(deg)": 315.29691842489706,
        "RAAN(deg)": -0.003631390542309592,
        "Satellite Name": "Starlink Shell 1 19",
        "Satellite Number": 19,
        "Semi-Major Axis(m)": 6931778.249405717,
        "Time(s)": 70
    },
    {
        "Altitude(m)": 564047.3331376741,
        "Argument of Periapsis(deg)": 0.002788627836089895,
        "Eccentricity": 0.0,
        "Inclination(deg)": 53.0,
        "Latitude(deg)": -33.95213704499087,
        "Longitude(deg)": -130.6117220045148,
        "Mean Anomaly(deg)": 315.9237496284538,
        "RAAN(deg)": -0.00415016061978239,
        "Satellite Name": "Starlink Shell 1 19",
        "Satellite Number": 19,
        "Semi-Major Axis(m)": 6931778.249405717,
        "Time(s)": 80
    },
    {
        "Altitude(m)": 563873.0715026944,
        "Argument of Periapsis(deg)": 0.0031372063156011316,
        "Eccentricity": 0.0,
        "Inclination(deg)": 53.0,
        "Latitude(deg)": -33.518090330979255,
        "Longitude(deg)": -130.11071065574646,
        "Mean Anomaly(deg)": 316.55058083201044,
        "RAAN(deg)": -0.00466893069725519,
        "Satellite Name": "Starlink Shell 1 19",
        "Satellite Number": 19,
        "Semi-Major Axis(m)": 6931778.249405717,
        "Time(s)": 90
    },
    {
        "Altitude(m)": 563698.4500218334,
        "Argument of Periapsis(deg)": 0.0034857847951123688,
        "Eccentricity": 0.0,
        "Inclination(deg)": 53.0,
        "Latitude(deg)": -33.081650400357795,
        "Longitude(deg)": -129.61508368888846,
        "Mean Anomaly(deg)": 317.1774120355672,
        "RAAN(deg)": -0.005187700774727988,
        "Satellite Name": "Starlink Shell 1 19",
        "Satellite Number": 19,
        "Semi-Major Axis(m)": 6931778.249405717,
        "Time(s)": 100
    },
    {
        "Altitude(m)": 563523.5351047728,
        "Argument of Periapsis(deg)": 0.003834363274623606,
        "Eccentricity": 0.0,
        "Inclination(deg)": 53.0,
        "Latitude(deg)": -32.64287818197063,
        "Longitude(deg)": -129.12472827088646,
        "Mean Anomaly(deg)": 317.80424323912393,
        "RAAN(deg)": -0.005706470852200787,
        "Satellite Name": "Starlink Shell 1 19",
        "Satellite Number": 19,
        "Semi-Major Axis(m)": 6931778.249405717,
        "Time(s)": 110
    },
    {
        "Altitude(m)": 563348.3931466199,
        "Argument of Periapsis(deg)": 0.004182941754134842,
        "Eccentricity": 0.0,
        "Inclination(deg)": 53.0,
        "Latitude(deg)": -32.2018332332745,
        "Longitude(deg)": -128.639532621989,
        "Mean Anomaly(deg)": 318.43107444268065,
        "RAAN(deg)": -0.0062252409296735855,
        "Satellite Name": "Starlink Shell 1 19",
        "Satellite Number": 19,
        "Semi-Major Axis(m)": 6931778.249405717,
        "Time(s)": 120
    },
    {
        "Altitude(m)": 563173.0904981835,
        "Argument of Periapsis(deg)": 0.004531520233646079,
        "Eccentricity": 0.0,
        "Inclination(deg)": 53.0,
        "Latitude(deg)": -31.758573772768337,
        "Longitude(deg)": -128.15938555932428,
        "Mean Anomaly(deg)": 319.0579056462374,
        "RAAN(deg)": -0.0067440110071463845,
        "Satellite Name": "Starlink Shell 1 19",
        "Satellite Number": 19,
        "Semi-Major Axis(m)": 6931778.249405717,
        "Time(s)": 130
    },
    {
        "Altitude(m)": 562997.6934362854,
        "Argument of Periapsis(deg)": 0.0048800987131573164,
        "Eccentricity": 0.0,
        "Inclination(deg)": 53.0,
        "Latitude(deg)": -31.31315671239785,
        "Longitude(deg)": -127.68417754713894,
        "Mean Anomaly(deg)": 319.68473684979404,
        "RAAN(deg)": -0.007262781084619184,
        "Satellite Name": "Starlink Shell 1 19",
        "Satellite Number": 19,
        "Semi-Major Axis(m)": 6931778.249405717,
        "Time(s)": 140
    },
    {
        "Altitude(m)": 562822.2681340817,
        "Argument of Periapsis(deg)": 0.005228677192668553,
        "Eccentricity": 0.0,
        "Inclination(deg)": 53.0,
        "Latitude(deg)": -30.865637689871555,
        "Longitude(deg)": -127.21380022836588,
        "Mean Anomaly(deg)": 320.31156805335075,
        "RAAN(deg)": -0.007781551162091982,
        "Satellite Name": "Starlink Shell 1 19",
        "Satellite Number": 19,
        "Semi-Major Axis(m)": 6931778.249405717,
        "Time(s)": 150
    },
    {
        "Altitude(m)": 562646.8806314162,
        "Argument of Periapsis(deg)": 0.00557725567217979,
        "Eccentricity": 0.0,
        "Inclination(deg)": 53.0,
        "Latitude(deg)": -30.416071100823427,
        "Longitude(deg)": -126.74814595078949,
        "Mean Anomaly(deg)": 320.93839925690753,
        "RAAN(deg)": -0.00830032123956478,
        "Satellite Name": "Starlink Shell 1 19",
        "Satellite Number": 19,
        "Semi-Major Axis(m)": 6931778.249405717,
        "Time(s)": 160
    },
    {
        "Altitude(m)": 562471.5968052329,
        "Argument of Periapsis(deg)": 0.0059258341516910265,
        "Eccentricity": 0.0,
        "Inclination(deg)": 53.0,
        "Latitude(deg)": -29.964510130763916,
        "Longitude(deg)": -126.28710880105656,
        "Mean Anomaly(deg)": 321.56523046046425,
        "RAAN(deg)": -0.00881909131703758,
        "Satellite Name": "Starlink Shell 1 19",
        "Satellite Number": 19,
        "Semi-Major Axis(m)": 6931778.249405717,
        "Time(s)": 170
    },
    {
        "Altitude(m)": 562296.4823400641,
        "Argument of Periapsis(deg)": 0.006274412631202263,
        "Eccentricity": 0.0,
        "Inclination(deg)": 53.0,
        "Latitude(deg)": -29.51100678677585,
        "Longitude(deg)": -125.8305841211419,
        "Mean Anomaly(deg)": 322.1920616640209,
        "RAAN(deg)": -0.00933786139451038,
        "Satellite Name": "Starlink Shell 1 19",
        "Satellite Number": 19,
        "Semi-Major Axis(m)": 6931778.249405717,
        "Time(s)": 180
    }
]